{
  "norad_id": 60127,
  "name": "STARLINK-31840",
  "history": [
    {
      "epoch": "2026-05-04T17:10:14.129184Z",
      "apogee_km": 476.042055117,
      "perigee_km": 474.47948042594817,
      "latitude_deg": -8.595691982857587e-06,
      "longitude_deg": 6.366325703313191,
      "height_km": 476.2081096706801,
      "semi_major_axis_km": 6853.397767771474,
      "eccentricity": 0.000114,
      "inclination_deg": 53.1603,
      "raan_deg": 126.526,
      "arg_perigee_deg": 93.6002,
      "mean_anomaly_deg": 266.5129,
      "mean_motion_rev_day": 15.30184695
    },
    {
      "epoch": "2026-05-05T05:42:39.081312Z",
      "apogee_km": 475.9956465754585,
      "perigee_km": 474.46323383942763,
      "latitude_deg": 4.764889325251566e-05,
      "longitude_deg": 175.32008811135415,
      "height_km": 476.1909412458298,
      "semi_major_axis_km": 6853.366440207443,
      "eccentricity": 0.0001118,
      "inclination_deg": 53.1598,
      "raan_deg": 124.0987,
      "arg_perigee_deg": 94.7348,
      "mean_anomaly_deg": 265.3781,
      "mean_motion_rev_day": 15.30195187
    },
    {
      "epoch": "2026-05-06T09:55:37.570656Z",
      "apogee_km": 476.05123489713696,
      "perigee_km": 474.4860541160451,
      "latitude_deg": -2.7978144277645822e-05,
      "longitude_deg": 105.45752156005842,
      "height_km": 476.12317098483516,
      "semi_major_axis_km": 6853.405644506591,
      "eccentricity": 0.00011419,
      "inclination_deg": 53.1599,
      "raan_deg": 118.6387,
      "arg_perigee_deg": 86.798,
      "mean_anomaly_deg": 273.3151,
      "mean_motion_rev_day": 15.30182057
    },
    {
      "epoch": "2026-05-07T20:00:01.999008Z",
      "apogee_km": 476.14228065925363,
      "perigee_km": 474.4248134701593,
      "latitude_deg": -53.05950786250542,
      "longitude_deg": -151.35185208846306,
      "height_km": 494.56826794742676,
      "semi_major_axis_km": 6853.420547064706,
      "eccentricity": 0.0001253,
      "inclination_deg": 53.1574,
      "raan_deg": 112.0435,
      "arg_perigee_deg": 98.0873,
      "mean_anomaly_deg": 167.2558,
      "mean_motion_rev_day": 15.30177066
    },
    {
      "epoch": "2026-05-08T15:13:24.633696Z",
      "apogee_km": 476.1369707664617,
      "perigee_km": 474.3263107715702,
      "latitude_deg": -6.73780741572755e-05,
      "longitude_deg": 13.508183090548043,
      "height_km": 476.07738468177814,
      "semi_major_axis_km": 6853.368640769016,
      "eccentricity": 0.0001321,
      "inclination_deg": 53.1608,
      "raan_deg": 108.3243,
      "arg_perigee_deg": 86.6845,
      "mean_anomaly_deg": 273.4306,
      "mean_motion_rev_day": 15.3019445
    },
    {
      "epoch": "2026-05-09T08:27:55.789056Z",
      "apogee_km": 476.24862155861774,
      "perigee_km": 472.60031783215163,
      "latitude_deg": 1.2369310088507361e-05,
      "longitude_deg": 110.83212350981202,
      "height_km": 473.5058676821046,
      "semi_major_axis_km": 6852.561469695384,
      "eccentricity": 0.0002662,
      "inclination_deg": 53.1602,
      "raan_deg": 104.9861,
      "arg_perigee_deg": 355.5725,
      "mean_anomaly_deg": 4.5252,
      "mean_motion_rev_day": 15.30464823
    },
    {
      "epoch": "2026-05-10T06:24:45.396576Z",
      "apogee_km": 476.0554121782652,
      "perigee_km": 474.3853860472491,
      "latitude_deg": -6.174730682746764e-06,
      "longitude_deg": 136.47627423790166,
      "height_km": 476.0687799124368,
      "semi_major_axis_km": 6853.357399112757,
      "eccentricity": 0.00012184,
      "inclination_deg": 53.16,
      "raan_deg": 100.7383,
      "arg_perigee_deg": 86.583,
      "mean_anomaly_deg": 273.531,
      "mean_motion_rev_day": 15.30198215
    },
    {
      "epoch": "2026-05-11T20:00:01.999008Z",
      "apogee_km": 476.2262420005727,
      "perigee_km": 474.3607382211658,
      "latitude_deg": -6.169526907347454,
      "longitude_deg": -80.78159578305255,
      "height_km": 477.42618265929826,
      "semi_major_axis_km": 6853.430490110869,
      "eccentricity": 0.0001361,
      "inclination_deg": 53.1582,
      "raan_deg": 93.463,
      "arg_perigee_deg": 96.4506,
      "mean_anomaly_deg": 255.9932,
      "mean_motion_rev_day": 15.30173736
    }
  ]
}